{
  "type": "FeatureCollection",
  "features": [
    {
      "type": "Feature",
      "properties": {
        "norad_id": 66737,
        "name": "FLOCK 4H-34",
        "group": "last-30-days",
        "lat": -13.988936576252758,
        "lon": -115.72412765843005,
        "alt_km": 514.7361506940142,
        "timestamp": "2025-12-20T11:30:27.105379+00:00",
        "meta_object_name": "FLOCK 4H-34",
        "meta_object_id": "2025-276BZ",
        "meta_epoch": "2025-12-20T04:19:40.967328",
        "meta_mean_motion": 15.18117302,
        "meta_eccentricity": 0.000229,
        "meta_inclination": 97.445,
        "meta_ra_of_asc_node": 65.8484,
        "meta_arg_of_pericenter": 176.3551,
        "meta_mean_anomaly": 183.77,
        "meta_ephemeris_type": 0,
        "meta_classification_type": "U",
        "meta_norad_cat_id": 66737,
        "meta_element_set_no": 999,
        "meta_rev_at_epoch": 250,
        "meta_bstar": 0.00022468,
        "meta_mean_motion_dot": 4.517e-05,
        "meta_mean_motion_ddot": 0,
        "tle_line1": "1 66737U 25276BZ  25354.18033527  .00004517  00000+0  22468-3 0  9990",
        "tle_line2": "2 66737  97.4450  65.8484 0002290 176.3551 183.7700 15.18117302  2508"
      },
      "geometry": {
        "type": "Point",
        "coordinates": [
          -115.72412765843005,
          -13.988936576252758
        ]
      }
    },
    {
      "type": "Feature",
      "properties": {
        "norad_id": 66738,
        "name": "FLOCK 4H-35",
        "group": "last-30-days",
        "lat": -22.037244986399983,
        "lon": -116.89895135409836,
        "alt_km": 515.8083856802823,
        "timestamp": "2025-12-20T11:30:27.105389+00:00",
        "meta_object_name": "FLOCK 4H-35",
        "meta_object_id": "2025-276CA",
        "meta_epoch": "2025-12-20T04:17:34.387008",
        "meta_mean_motion": 15.18213939,
        "meta_eccentricity": 0.0002102,
        "meta_inclination": 97.4414,
        "meta_ra_of_asc_node": 65.8381,
        "meta_arg_of_pericenter": 149.7087,
        "meta_mean_anomaly": 210.4268,
        "meta_ephemeris_type": 0,
        "meta_classification_type": "U",
        "meta_norad_cat_id": 66738,
        "meta_element_set_no": 999,
        "meta_rev_at_epoch": 254,
        "meta_bstar": 0.000327,
        "meta_mean_motion_dot": 6.624e-05,
        "meta_mean_motion_ddot": 0,
        "tle_line1": "1 66738U 25276CA  25354.17887022  .00006624  00000+0  32700-3 0  9998",
        "tle_line2": "2 66738  97.4414  65.8381 0002102 149.7087 210.4268 15.18213939  2549"
      },
      "geometry": {
        "type": "Point",
        "coordinates": [
          -116.89895135409836,
          -22.037244986399983
        ]
      }
    },
    {
      "type": "Feature",
      "properties": {
        "norad_id": 66739,
        "name": "FLOCK 4H-36",
        "group": "last-30-days",
        "lat": -2.2666546626566904,
        "lon": -114.15579735287311,
        "alt_km": 513.902763243791,
        "timestamp": "2025-12-20T11:30:27.105399+00:00",
        "meta_object_name": "FLOCK 4H-36",
        "meta_object_id": "2025-276CB",
        "meta_epoch": "2025-12-20T04:22:45.066720",
        "meta_mean_motion": 15.17959724,
        "meta_eccentricity": 0.0002168,
        "meta_inclination": 97.4461,
        "meta_ra_of_asc_node": 65.8486,
        "meta_arg_of_pericenter": 192.7906,
        "meta_mean_anomaly": 167.3274,
        "meta_ephemeris_type": 0,
        "meta_classification_type": "U",
        "meta_norad_cat_id": 66739,
        "meta_element_set_no": 999,
        "meta_rev_at_epoch": 325,
        "meta_bstar": 0.00024034,
        "meta_mean_motion_dot": 4.814e-05,
        "meta_mean_motion_ddot": 0,
        "tle_line1": "1 66739U 25276CB  25354.18246605  .00004814  00000+0  24034-3 0  9996",
        "tle_line2": "2 66739  97.4461  65.8486 0002168 192.7906 167.3274 15.17959724  3252"
      },
      "geometry": {
        "type": "Point",
        "coordinates": [
          -114.15579735287311,
          -2.2666546626566904
        ]
      }
    },
    {
      "type": "Feature",
      "properties": {
        "norad_id": 66740,
        "name": "TRANSPORTER-15 CC",
        "group": "last-30-days",
        "lat": 21.204875971339728,
        "lon": -110.96974578656183,
        "alt_km": 512.9041569290594,
        "timestamp": "2025-12-20T11:30:27.105409+00:00",
        "meta_object_name": "TRANSPORTER-15 CC",
        "meta_object_id": "2025-276CC",
        "meta_epoch": "2025-12-20T04:28:54.145056",
        "meta_mean_motion": 15.1767127,
        "meta_eccentricity": 0.000196,
        "meta_inclination": 97.4423,
        "meta_ra_of_asc_node": 65.8355,
        "meta_arg_of_pericenter": 252.4875,
        "meta_mean_anomaly": 107.6144,
        "meta_ephemeris_type": 0,
        "meta_classification_type": "U",
        "meta_norad_cat_id": 66740,
        "meta_element_set_no": 999,
        "meta_rev_at_epoch": 325,
        "meta_bstar": 0.00026319,
        "meta_mean_motion_dot": 5.235e-05,
        "meta_mean_motion_ddot": 0,
        "tle_line1": "1 66740U 25276CC  25354.18673779  .00005235  00000+0  26319-3 0  9990",
        "tle_line2": "2 66740  97.4423  65.8355 0001960 252.4875 107.6144 15.17671270  3255"
      },
      "geometry": {
        "type": "Point",
        "coordinates": [
          -110.96974578656183,
          21.204875971339728
        ]
      }
    },
    {
      "type": "Feature",
      "properties": {
        "norad_id": 66741,
        "name": "TRANSPORTER-15 CD",
        "group": "last-30-days",
        "lat": 27.298774479898157,
        "lon": -110.01857980926417,
        "alt_km": 512.9363764011359,
        "timestamp": "2025-12-20T11:30:27.105421+00:00",
        "meta_object_name": "TRANSPORTER-15 CD",
        "meta_object_id": "2025-276CD",
        "meta_epoch": "2025-12-20T04:30:22.113216",
        "meta_mean_motion": 15.17097812,
        "meta_eccentricity": 0.0001313,
        "meta_inclination": 97.442,
        "meta_ra_of_asc_node": 65.8267,
        "meta_arg_of_pericenter": 149.7198,
        "meta_mean_anomaly": 210.4111,
        "meta_ephemeris_type": 0,
        "meta_classification_type": "U",
        "meta_norad_cat_id": 66741,
        "meta_element_set_no": 999,
        "meta_rev_at_epoch": 325,
        "meta_bstar": -0.0067002,
        "meta_mean_motion_dot": -0.00130377,
        "meta_mean_motion_ddot": 0,
        "tle_line1": "1 66741U 25276CD  25354.18775594 -.00130377  00000+0 -67002-2 0  9990",
        "tle_line2": "2 66741  97.4420  65.8267 0001313 149.7198 210.4111 15.17097812  3254"
      },
      "geometry": {
        "type": "Point",
        "coordinates": [
          -110.01857980926417,
          27.298774479898157
        ]
      }
    },
    {
      "type": "Feature",
      "properties": {
        "norad_id": 66742,
        "name": "TRANSPORTER-15 CE",
        "group": "last-30-days",
        "lat": 18.093918517796197,
        "lon": -111.438246804498,
        "alt_km": 512.5664854154529,
        "timestamp": "2025-12-20T11:30:27.105434+00:00",
        "meta_object_name": "TRANSPORTER-15 CE",
        "meta_object_id": "2025-276CE",
        "meta_epoch": "2025-12-20T04:28:04.958400",
        "meta_mean_motion": 15.17673287,
        "meta_eccentricity": 0.0001418,
        "meta_inclination": 97.4415,
        "meta_ra_of_asc_node": 65.8259,
        "meta_arg_of_pericenter": 202.2894,
        "meta_mean_anomaly": 157.8278,
        "meta_ephemeris_type": 0,
        "meta_classification_type": "U",
        "meta_norad_cat_id": 66742,
        "meta_element_set_no": 999,
        "meta_rev_at_epoch": 325,
        "meta_bstar": 0.00028856,
        "meta_mean_motion_dot": 5.746e-05,
        "meta_mean_motion_ddot": 0,
        "tle_line1": "1 66742U 25276CE  25354.18616850  .00005746  00000+0  28856-3 0  9994",
        "tle_line2": "2 66742  97.4415  65.8259 0001418 202.2894 157.8278 15.17673287  3258"
      },
      "geometry": {
        "type": "Point",
        "coordinates": [
          -111.438246804498,
          18.093918517796197
        ]
      }
    },
    {
      "type": "Feature",
      "properties": {
        "norad_id": 66743,
        "name": "TRANSPORTER-15 CF",
        "group": "last-30-days",
        "lat": 35.72613605374306,
        "lon": -108.49919500749114,
        "alt_km": 511.27097146326014,
        "timestamp": "2025-12-20T11:30:27.105444+00:00",
        "meta_object_name": "TRANSPORTER-15 CF",
        "meta_object_id": "2025-276CF",
        "meta_epoch": "2025-12-19T15:53:04.937280",
        "meta_mean_motion": 15.17467426,
        "meta_eccentricity": 4.328e-05,
        "meta_inclination": 97.4415,
        "meta_ra_of_asc_node": 65.3031,
        "meta_arg_of_pericenter": 269.9787,
        "meta_mean_anomaly": 90.1397,
        "meta_ephemeris_type": 0,
        "meta_classification_type": "U",
        "meta_norad_cat_id": 66743,
        "meta_element_set_no": 999,
        "meta_rev_at_epoch": 317,
        "meta_bstar": 0.00021277504,
        "meta_mean_motion_dot": 4.194e-05,
        "meta_mean_motion_ddot": 0,
        "tle_line1": "1 66743U 25276CF  25353.66186270  .00004194  00000+0  21278-3 0  9992",
        "tle_line2": "2 66743  97.4415  65.3031 0000432 269.9787  90.1397 15.17467426  3176"
      },
      "geometry": {
        "type": "Point",
        "coordinates": [
          -108.49919500749114,
          35.72613605374306
        ]
      }
    }
  ]
}